[{"OBJECT_NAME":"STARLINK-36655","OBJECT_ID":"2026-033P","EPOCH":"2026-03-13T14:00:01.000224","MEAN_MOTION":15.72327396,"ECCENTRICITY":0.00015001,"INCLINATION":42.9994,"RA_OF_ASC_NODE":247.6377,"ARG_OF_PERICENTER":264.4058,"MEAN_ANOMALY":322.5674,"EPHEMERIS_TYPE":0,"CLASSIFICATION_TYPE":"U","NORAD_CAT_ID":67834,"ELEMENT_SET_NO":999,"REV_AT_EPOCH":529,"BSTAR":-0.016177928,"MEAN_MOTION_DOT":-0.01956838,"MEAN_MOTION_DDOT":0},{"OBJECT_NAME":"STARLINK-36657","OBJECT_ID":"2026-033Q","EPOCH":"2026-03-13T14:00:01.000224","MEAN_MOTION":15.76427316,"ECCENTRICITY":0.00016217,"INCLINATION":42.999,"RA_OF_ASC_NODE":247.5587,"ARG_OF_PERICENTER":263.4845,"MEAN_ANOMALY":354.7891,"EPHEMERIS_TYPE":0,"CLASSIFICATION_TYPE":"U","NORAD_CAT_ID":67835,"ELEMENT_SET_NO":999,"REV_AT_EPOCH":529,"BSTAR":-0.013505866,"MEAN_MOTION_DOT":-0.01916929,"MEAN_MOTION_DDOT":0},{"OBJECT_NAME":"STARLINK-36650","OBJECT_ID":"2026-033R","EPOCH":"2026-03-13T14:00:01.000224","MEAN_MOTION":15.67994102,"ECCENTRICITY":0.00013279,"INCLINATION":42.9991,"RA_OF_ASC_NODE":247.7267,"ARG_OF_PERICENTER":263.5176,"MEAN_ANOMALY":287.6427,"EPHEMERIS_TYPE":0,"CLASSIFICATION_TYPE":"U","NORAD_CAT_ID":67836,"ELEMENT_SET_NO":999,"REV_AT_EPOCH":529,"BSTAR":-0.019412613,"MEAN_MOTION_DOT":-0.01955507,"MEAN_MOTION_DDOT":0},{"OBJECT_NAME":"STARLINK-36649","OBJECT_ID":"2026-033S","EPOCH":"2026-03-13T14:00:01.000224","MEAN_MOTION":15.71902984,"ECCENTRICITY":0.0001476,"INCLINATION":42.9992,"RA_OF_ASC_NODE":247.6137,"ARG_OF_PERICENTER":261.6252,"MEAN_ANOMALY":334.5327,"EPHEMERIS_TYPE":0,"CLASSIFICATION_TYPE":"U","NORAD_CAT_ID":67837,"ELEMENT_SET_NO":999,"REV_AT_EPOCH":529,"BSTAR":-0.016468119,"MEAN_MOTION_DOT":-0.01956024,"MEAN_MOTION_DDOT":0},{"OBJECT_NAME":"STARLINK-36654","OBJECT_ID":"2026-033T","EPOCH":"2026-03-13T14:00:01.000224","MEAN_MOTION":15.69893634,"ECCENTRICITY":0.00013834,"INCLINATION":42.9995,"RA_OF_ASC_NODE":247.6511,"ARG_OF_PERICENTER":261.5738,"MEAN_ANOMALY":319.5693,"EPHEMERIS_TYPE":0,"CLASSIFICATION_TYPE":"U","NORAD_CAT_ID":67838,"ELEMENT_SET_NO":999,"REV_AT_EPOCH":529,"BSTAR":-0.017960153,"MEAN_MOTION_DOT":-0.01958251,"MEAN_MOTION_DDOT":0},{"OBJECT_NAME":"STARLINK-36652","OBJECT_ID":"2026-033U","EPOCH":"2026-03-13T14:00:01.000224","MEAN_MOTION":15.6818364,"ECCENTRICITY":0.0001408,"INCLINATION":42.9992,"RA_OF_ASC_NODE":247.6884,"ARG_OF_PERICENTER":262.8648,"MEAN_ANOMALY":303.4669,"EPHEMERIS_TYPE":0,"CLASSIFICATION_TYPE":"U","NORAD_CAT_ID":67839,"ELEMENT_SET_NO":999,"REV_AT_EPOCH":529,"BSTAR":-0.019204595,"MEAN_MOTION_DOT":-0.01950538,"MEAN_MOTION_DDOT":0},{"OBJECT_NAME":"STARLINK-36651","OBJECT_ID":"2026-033V","EPOCH":"2026-03-13T14:00:01.000224","MEAN_MOTION":15.69711368,"ECCENTRICITY":0.00014181,"INCLINATION":42.9994,"RA_OF_ASC_NODE":247.634,"ARG_OF_PERICENTER":258.4851,"MEAN_ANOMALY":329.3259,"EPHEMERIS_TYPE":0,"CLASSIFICATION_TYPE":"U","NORAD_CAT_ID":67840,"ELEMENT_SET_NO":999,"REV_AT_EPOCH":529,"BSTAR":-0.018030445,"MEAN_MOTION_DOT":-0.01951778,"MEAN_MOTION_DDOT":0},{"OBJECT_NAME":"STARLINK-36656","OBJECT_ID":"2026-033W","EPOCH":"2026-03-13T14:00:01.000224","MEAN_MOTION":15.7081228,"ECCENTRICITY":0.00014389,"INCLINATION":42.9992,"RA_OF_ASC_NODE":247.5961,"ARG_OF_PERICENTER":259.4831,"MEAN_ANOMALY":343.748,"EPHEMERIS_TYPE":0,"CLASSIFICATION_TYPE":"U","NORAD_CAT_ID":67841,"ELEMENT_SET_NO":999,"REV_AT_EPOCH":529,"BSTAR":-0.017236013,"MEAN_MOTION_DOT":-0.01954313,"MEAN_MOTION_DDOT":0},{"OBJECT_NAME":"STARLINK-36653","OBJECT_ID":"2026-033X","EPOCH":"2026-03-13T14:00:01.000224","MEAN_MOTION":15.6980084,"ECCENTRICITY":0.00014303,"INCLINATION":42.9995,"RA_OF_ASC_NODE":247.6105,"ARG_OF_PERICENTER":259.462,"MEAN_ANOMALY":337.8821,"EPHEMERIS_TYPE":0,"CLASSIFICATION_TYPE":"U","NORAD_CAT_ID":67842,"ELEMENT_SET_NO":999,"REV_AT_EPOCH":529,"BSTAR":-0.017946593,"MEAN_MOTION_DOT":-0.01950239,"MEAN_MOTION_DDOT":0},{"OBJECT_NAME":"STARLINK-36589","OBJECT_ID":"2026-033Y","EPOCH":"2026-03-13T14:00:01.000224","MEAN_MOTION":15.70852757,"ECCENTRICITY":0.00014794,"INCLINATION":42.9994,"RA_OF_ASC_NODE":247.5735,"ARG_OF_PERICENTER":260.8874,"MEAN_ANOMALY":351.2728,"EPHEMERIS_TYPE":0,"CLASSIFICATION_TYPE":"U","NORAD_CAT_ID":67843,"ELEMENT_SET_NO":999,"REV_AT_EPOCH":529,"BSTAR":-0.017231884,"MEAN_MOTION_DOT":-0.01956902,"MEAN_MOTION_DDOT":0},{"OBJECT_NAME":"STARLINK-36598","OBJECT_ID":"2026-033Z","EPOCH":"2026-03-13T14:00:01.000224","MEAN_MOTION":15.67631165,"ECCENTRICITY":0.00014224,"INCLINATION":42.9995,"RA_OF_ASC_NODE":247.6511,"ARG_OF_PERICENTER":262.6573,"MEAN_ANOMALY":318.3235,"EPHEMERIS_TYPE":0,"CLASSIFICATION_TYPE":"U","NORAD_CAT_ID":67844,"ELEMENT_SET_NO":999,"REV_AT_EPOCH":529,"BSTAR":-0.019616774,"MEAN_MOTION_DOT":-0.01947748,"MEAN_MOTION_DDOT":0},{"OBJECT_NAME":"STARLINK-36606","OBJECT_ID":"2026-033AA","EPOCH":"2026-03-13T14:00:01.000224","MEAN_MOTION":15.74346437,"ECCENTRICITY":0.00015802,"INCLINATION":42.999,"RA_OF_ASC_NODE":247.481,"ARG_OF_PERICENTER":265.8592,"MEAN_ANOMALY":23.2393,"EPHEMERIS_TYPE":0,"CLASSIFICATION_TYPE":"U","NORAD_CAT_ID":67845,"ELEMENT_SET_NO":999,"REV_AT_EPOCH":529,"BSTAR":-0.014805885,"MEAN_MOTION_DOT":-0.01916054,"MEAN_MOTION_DDOT":0},{"OBJECT_NAME":"STARLINK-36658","OBJECT_ID":"2026-033AB","EPOCH":"2026-03-13T14:00:01.000224","MEAN_MOTION":15.68093836,"ECCENTRICITY":0.00013643,"INCLINATION":42.9996,"RA_OF_ASC_NODE":247.6155,"ARG_OF_PERICENTER":261.6306,"MEAN_ANOMALY":333.5204,"EPHEMERIS_TYPE":0,"CLASSIFICATION_TYPE":"U","NORAD_CAT_ID":67846,"ELEMENT_SET_NO":999,"REV_AT_EPOCH":529,"BSTAR":-0.019313289,"MEAN_MOTION_DOT":-0.01953813,"MEAN_MOTION_DDOT":0},{"OBJECT_NAME":"STARLINK-36618","OBJECT_ID":"2026-033AC","EPOCH":"2026-03-13T14:28:07.801248","MEAN_MOTION":15.91565255,"ECCENTRICITY":0.00029637,"INCLINATION":42.9788,"RA_OF_ASC_NODE":244.7205,"ARG_OF_PERICENTER":282.3194,"MEAN_ANOMALY":77.7349,"EPHEMERIS_TYPE":0,"CLASSIFICATION_TYPE":"U","NORAD_CAT_ID":67847,"ELEMENT_SET_NO":999,"REV_AT_EPOCH":527,"BSTAR":0.0021242017,"MEAN_MOTION_DOT":0.00711396,"MEAN_MOTION_DDOT":0.00021036209},{"OBJECT_NAME":"STARLINK-36660","OBJECT_ID":"2026-033AD","EPOCH":"2026-03-13T14:00:01.000224","MEAN_MOTION":15.66642997,"ECCENTRICITY":0.00015013,"INCLINATION":42.9995,"RA_OF_ASC_NODE":247.6496,"ARG_OF_PERICENTER":262.9773,"MEAN_ANOMALY":318.17,"EPHEMERIS_TYPE":0,"CLASSIFICATION_TYPE":"U","NORAD_CAT_ID":67848,"ELEMENT_SET_NO":999,"REV_AT_EPOCH":529,"BSTAR":-0.020418092,"MEAN_MOTION_DOT":-0.01946808,"MEAN_MOTION_DDOT":0},{"OBJECT_NAME":"STARLINK-36602","OBJECT_ID":"2026-033AE","EPOCH":"2026-03-13T14:00:01.000224","MEAN_MOTION":15.67222891,"ECCENTRICITY":0.00014701,"INCLINATION":42.9993,"RA_OF_ASC_NODE":247.6203,"ARG_OF_PERICENTER":258.8884,"MEAN_ANOMALY":334.0268,"EPHEMERIS_TYPE":0,"CLASSIFICATION_TYPE":"U","NORAD_CAT_ID":67849,"ELEMENT_SET_NO":999,"REV_AT_EPOCH":529,"BSTAR":-0.019943963,"MEAN_MOTION_DOT":-0.01947298,"MEAN_MOTION_DDOT":0}]
