STARLINK-36655          
1 67834U 26033P   26072.58334491 -.01956838  00000+0 -16178-1 0  9991
2 67834  42.9994 247.6377 0001500 264.4058 322.5674 15.72327396  5298
STARLINK-36657          
1 67835U 26033Q   26072.58334491 -.01916929  00000+0 -13506-1 0  9991
2 67835  42.9990 247.5587 0001621 263.4845 354.7891 15.76427316  5299
STARLINK-36650          
1 67836U 26033R   26072.58334491 -.01955507  00000+0 -19413-1 0  9990
2 67836  42.9991 247.7267 0001327 263.5176 287.6427 15.67994102  5290
STARLINK-36649          
1 67837U 26033S   26072.58334491 -.01956024  00000+0 -16468-1 0  9993
2 67837  42.9992 247.6137 0001476 261.6252 334.5327 15.71902984  5299
STARLINK-36654          
1 67838U 26033T   26072.58334491 -.01958251  00000+0 -17960-1 0  9996
2 67838  42.9995 247.6511 0001383 261.5738 319.5693 15.69893634  5291
STARLINK-36652          
1 67839U 26033U   26072.58334491 -.01950538  00000+0 -19205-1 0  9991
2 67839  42.9992 247.6884 0001408 262.8648 303.4669 15.68183640  5297
STARLINK-36651          
1 67840U 26033V   26072.58334491 -.01951778  00000+0 -18030-1 0  9995
2 67840  42.9994 247.6340 0001418 258.4851 329.3259 15.69711368  5293
STARLINK-36656          
1 67841U 26033W   26072.58334491 -.01954313  00000+0 -17236-1 0  9991
2 67841  42.9992 247.5961 0001438 259.4831 343.7480 15.70812280  5294
STARLINK-36653          
1 67842U 26033X   26072.58334491 -.01950239  00000+0 -17947-1 0  9994
2 67842  42.9995 247.6105 0001430 259.4620 337.8821 15.69800840  5297
STARLINK-36589          
1 67843U 26033Y   26072.58334491 -.01956902  00000+0 -17232-1 0  9995
2 67843  42.9994 247.5735 0001479 260.8874 351.2728 15.70852757  5297
STARLINK-36598          
1 67844U 26033Z   26072.58334491 -.01947748  00000+0 -19617-1 0  9993
2 67844  42.9995 247.6511 0001422 262.6573 318.3235 15.67631165  5297
STARLINK-36606          
1 67845U 26033AA  26072.58334491 -.01916054  00000+0 -14806-1 0  9995
2 67845  42.9990 247.4810 0001580 265.8592  23.2393 15.74346437  5294
STARLINK-36658          
1 67846U 26033AB  26072.58334491 -.01953813  00000+0 -19313-1 0  9998
2 67846  42.9996 247.6155 0001364 261.6306 333.5204 15.68093836  5295
STARLINK-36618          
1 67847U 26033AC  26072.60286807  .00711396  21036-3  21242-2 0  9995
2 67847  42.9788 244.7205 0002963 282.3194  77.7349 15.91565255  5270
STARLINK-36660          
1 67848U 26033AD  26072.58334491 -.01946808  00000+0 -20418-1 0  9994
2 67848  42.9995 247.6496 0001501 262.9773 318.1700 15.66642997  5295
STARLINK-36602          
1 67849U 26033AE  26072.58334491 -.01947298  00000+0 -19944-1 0  9991
2 67849  42.9993 247.6203 0001470 258.8884 334.0268 15.67222891  5296
